STARLINK-1663
1 26535C 20070D   21325.17845796 -.00007540  00000-0 -50528-3 0  3256
2 26535  53.0543  22.4380 0001441  64.8183  19.8362 15.06398984    17
